GPS BIIR-2  (PRN 13)    
1 24876C 97035A   21245.69312500 -.00000000  00000-0  00000-0 0  2456
2 24876  55.4783 166.9014 0051786  53.5474 315.4979  2.00562693    15
GPS BIIR-4  (PRN 20)    
1 26360C 00025A   21245.69312500 -.00000000  00000-0  00000-0 0  2459
2 26360  53.8297  90.7785 0054911 172.7893 282.7440  2.00566807    18
GPS BIIR-8  (PRN 16)    
1 27663C 03005A   21245.69312500  .00000000  00000-0  00000-0 0  2456
2 27663  55.7166 284.4797 0120378  38.1003  36.8340  2.00554952    10
GPS BIIR-9  (PRN 21)    
1 27704C 03010A   21245.69312500 -.00000000  00000-0  00000-0 0  2459
2 27704  54.8996  34.9794 0242368 297.2161 353.1736  2.00567216    10
GPS BIIR-10 (PRN 22)    
1 28129C 03058A   21245.69312500 -.00000000  00000-0  00000-0 0  2453
2 28129  53.6396  93.4245 0069517 307.3938 283.5912  2.00555223    19
GPS BIIR-11 (PRN 19)    
1 28190C 04009A   21245.69312500  .00000000  00000-0  00000-0 0  2457
2 28190  56.1520 345.3853 0089527 111.1855 123.3383  2.00567108    18
GPS BIIR-13 (PRN 02)    
1 28474C 04045A   21245.69312500 -.00000000  00000-0  00000-0 0  2453
2 28474  55.2327  35.0113 0204657 274.1239 232.8634  2.00555350    10
GPS BIIRM-1 (PRN 17)    
1 28874C 05038A   21245.69312500  .00000000  00000-0  00000-0 0  2459
2 28874  56.2311 342.8044 0137618 270.5968 347.6486  2.00566462    17
GPS BIIRM-2 (PRN 31)    
1 29486C 06042A   21245.69312500  .00000000  00000-0  00000-0 0  2455
2 29486  54.7610 220.7262 0100773  15.2171 156.6209  2.00571881    12
GPS BIIRM-3 (PRN 12)    
1 29601C 06052A   21245.69312500  .00000000  00000-0  00000-0 0  2455
2 29601  55.7149 283.4081 0080174  70.0758 140.6427  2.00562458    11
GPS BIIRM-4 (PRN 15)    
1 32260C 07047A   21245.69312500 -.00000000  00000-0  00000-0 0  2456
2 32260  53.2451 152.4716 0134035  57.9337 294.4685  2.00563737    13
GPS BIIRM-5 (PRN 29)    
1 32384C 07062A   21245.69312500  .00000000  00000-0  00000-0 0  2459
2 32384  56.3410 343.5297 0017988 138.1317 341.6766  2.00574681    18
GPS BIIRM-6 (PRN 07)    
1 32711C 08012A   21245.69312500  .00000000  00000-0  00000-0 0  2459
2 32711  54.5151 219.7270 0154466 228.3041 181.5778  2.00555467    13
GPS BIIRM-8 (PRN 05)    
1 35752C 09043A   21245.69312500 -.00000000  00000-0  00000-0 0  2453
2 35752  54.8577  97.1355 0059180  54.9116   8.0001  2.00574799    12
GPS BIIF-1  (PRN 25)    
1 36585C 10022A   21245.69312500  .00000000  00000-0  00000-0 0  2456
2 36585  54.9919 279.1273 0096523  54.8004 131.1147  2.00575000    11
GPS BIIF-2  (PRN 01)    
1 37753C 11036A   21245.69312500 -.00000000  00000-0  00000-0 0  2451
2 37753  56.4621  39.9286 0109002  49.9874 217.8660  2.00563839    18
GPS BIIF-3  (PRN 24)    
1 38833C 12053A   21245.69312500  .00000000  00000-0  00000-0 0  2450
2 38833  53.5657 215.1475 0113221  42.2732 239.1539  2.00558343    16
GPS BIIF-4  (PRN 27)    
1 39166C 13023A   21245.69312500  .00000000  00000-0  00000-0 0  2458
2 39166  55.8707 339.2887 0093266  35.2824 343.8398  2.00562321    19
GPS BIIF-5  (PRN 30)    
1 39533C 14008A   21245.69312500  .00000000  00000-0  00000-0 0  2450
2 39533  53.6669 220.6248 0054659 205.6854 172.8868  2.00565490    15
GPS BIIF-6  (PRN 06)    
1 39741C 14026A   21245.69312500 -.00000000  00000-0  00000-0 0  2452
2 39741  56.4293  39.4558 0023550 299.6874 237.7613  2.00576696    10
GPS BIIF-7  (PRN 09)    
1 40105C 14045A   21245.69312500 -.00000000  00000-0  00000-0 0  2459
2 40105  54.6364 158.2962 0018822 105.3053   8.5698  2.00558388    17
GPS BIIF-8  (PRN 03)    
1 40294C 14068A   21245.69312500 -.00000000  00000-0  00000-0 0  2453
2 40294  55.6036  99.3220 0036727  53.2649 156.3333  2.00551658    12
GPS BIIF-9  (PRN 26)    
1 40534C 15013A   21245.69312500  .00000000  00000-0  00000-0 0  2450
2 40534  53.8974 276.6119 0059836  14.7505  93.9561  2.00570171    16
GPS BIIF-10 (PRN 08)    
1 40730C 15033A   21245.69312500  .00000000  00000-0  00000-0 0  2450
2 40730  55.3765 338.2539 0064286   1.1906 352.1839  2.00567352    15
GPS BIIF-11 (PRN 10)    
1 41019C 15062A   21245.69312500 -.00000000  00000-0  00000-0 0  2454
2 41019  55.5955  99.1591 0069920 213.4647 103.2086  2.00563746    12
GPS BIIF-12 (PRN 32)    
1 41328C 16007A   21245.69312500 -.00000000  00000-0  00000-0 0  2457
2 41328  54.8614 158.8956 0052396 226.0102  24.7221  2.00559025    15
GPS BIII-1  (PRN 04)    
1 43873C 18109A   21245.69312500 -.00000000  00000-0  00000-0 0  2459
2 43873  55.0431 161.2537 0014029 195.4222 308.0053  2.00560455    18
GPS BIII-2  (PRN 18)    
1 44506C 19056A   21245.69312500 -.00000000  00000-0  00000-0 0  2455
2 44506  55.5305  40.5173 0018511 174.9438 229.1254  2.00566964    10
GPS BIII-3  (PRN 23)    
1 45854C 20041A   21245.69312500 -.00000000  00000-0  00000-0 0  2458
2 45854  55.3102  97.7840 0015240 160.0425 186.5514  2.00564514    17
GPS BIII-4  (PRN 14)    
1 46826C 20078A   21245.69312500  .00000000  00000-0  00000-0 0  2457
2 46826  54.7671 281.7645 0010855 189.0598 126.4656  2.00567000    11
GPS BIII-5  (PRN 11)    
1 48859C 21054A   21245.69312500 -.00000000  00000-0  00000-0 0  2451
2 48859  55.0294  42.6581 0003039 132.7388  14.2993  2.00561744    12
